STARLINK-6204           
1 56488U 23064AS  26068.51355670  .00002301  00000+0  20050-3 0  9995
2 56488  70.0002 105.0059 0003159 272.6146  87.4651 14.98347279156207
LEMUR-2-MARACHE-FRAN    
1 63262U 25052BE  26068.70885648  .00008220  00000+0  68460-3 0  9999
2 63262  97.6985 323.5335 0002324  45.7689 314.3725 14.98898773 53859
